start=new Date('2023-05-26T00:00:00.000Z').valueOf();
sats=[{"MEAN_MOTION":"15.06411896","ECCENTRICITY":"0.00009580","TLE_LINE1":"1 48301U 21036AB  23145.83716977  .00002870  00000-0  21138-3 0  9996","BSTAR":"0.00021138000000","TIME_SYSTEM":"UTC","REF_FRAME":"TEME","EPHEMERIS_TYPE":"0","EPOCH":"2023-05-25T20:05:31.468128","LAUNCH_DATE":"2021-04-29","SEMIMAJOR_AXIS":"6925.312","OBJECT_ID":"2021-036AB","FILE":"3917122","NORAD_CAT_ID":"48301","DECAY_DATE":null,"CENTER_NAME":"EARTH","OBJECT_TYPE":"PAYLOAD","RCS_SIZE":"LARGE","ARG_OF_PERICENTER":"127.6934","REV_AT_EPOCH":"11460","SITE":"AFETR","INCLINATION":"53.0559","CLASSIFICATION_TYPE":"U","GP_ID":"232515072","MEAN_ANOMALY":"232.4142","TLE_LINE2":"2 48301  53.0559 345.4234 0000958 127.6934 232.4142 15.06411896114605","COUNTRY_CODE":"US","OBJECT_NAME":"STARLINK-2537","RA_OF_ASC_NODE":"345.4234","PERIOD":"95.591","ELEMENT_SET_NO":"999","APOAPSIS":"547.841","MEAN_MOTION_DDOT":"0.0000000000000","PERIAPSIS":"546.514","MEAN_MOTION_DOT":"0.00002870","MEAN_ELEMENT_THEORY":"SGP4"},{"ELEMENT_SET_NO":"999","PERIOD":"95.592","OBJECT_NAME":"STARLINK-2556","COUNTRY_CODE":"US","RA_OF_ASC_NODE":"345.4403","MEAN_ANOMALY":"246.8767","TLE_LINE2":"2 48302  53.0549 345.4403 0001083 113.2336 246.8767 15.06408182114606","MEAN_MOTION_DOT":"0.00002379","MEAN_ELEMENT_THEORY":"SGP4","MEAN_MOTION_DDOT":"0.0000000000000","PERIAPSIS":"546.438","APOAPSIS":"547.938","REV_AT_EPOCH":"11460","SITE":"AFETR","ARG_OF_PERICENTER":"113.2336","GP_ID":"232513820","INCLINATION":"53.0549","CLASSIFICATION_TYPE":"U","NORAD_CAT_ID":"48302","DECAY_DATE":null,"CENTER_NAME":"EARTH","FILE":"3917122","SEMIMAJOR_AXIS":"6925.323","OBJECT_ID":"2021-036AC","RCS_SIZE":"LARGE","OBJECT_TYPE":"PAYLOAD","REF_FRAME":"TEME","EPHEMERIS_TYPE":"0","TLE_LINE1":"1 48302U 21036AC  23145.83348427  .00002379  00000-0  17850-3 0  9998","BSTAR":"0.00017850000000","TIME_SYSTEM":"UTC","MEAN_MOTION":"15.06408182","ECCENTRICITY":"0.00010830","LAUNCH_DATE":"2021-04-29","EPOCH":"2023-05-25T20:00:13.040928"},{"SEMIMAJOR_AXIS":"6925.315","OBJECT_ID":"2021-036AD","NORAD_CAT_ID":"48303","CENTER_NAME":"EARTH","DECAY_DATE":null,"FILE":"3917122","OBJECT_TYPE":"PAYLOAD","RCS_SIZE":"LARGE","TLE_LINE1":"1 48303U 21036AD  23145.76250592  .00004803  00000-0  34101-3 0  9998","BSTAR":"0.00034101000000","TIME_SYSTEM":"UTC","ECCENTRICITY":"0.00006550","MEAN_MOTION":"15.06411023","EPHEMERIS_TYPE":"0","REF_FRAME":"TEME","EPOCH":"2023-05-25T18:18:00.511488","LAUNCH_DATE":"2021-04-29","OBJECT_NAME":"STARLINK-2530","COUNTRY_CODE":"US","RA_OF_ASC_NODE":"345.7488","MEAN_ANOMALY":"258.0336","TLE_LINE2":"2 48303  53.0550 345.7488 0000655 102.0727 258.0336 15.06411023114592","ELEMENT_SET_NO":"999","PERIOD":"95.591","APOAPSIS":"547.633","MEAN_MOTION_DOT":"0.00004803","MEAN_ELEMENT_THEORY":"SGP4","MEAN_MOTION_DDOT":"0.0000000000000","PERIAPSIS":"546.726","REV_AT_EPOCH":"11459","SITE":"AFETR","ARG_OF_PERICENTER":"102.0727","INCLINATION":"53.0550","CLASSIFICATION_TYPE":"U","GP_ID":"232514070"},{"LAUNCH_DATE":"2021-04-29","EPOCH":"2023-05-25T19:49:36.055200","EPHEMERIS_TYPE":"0","REF_FRAME":"TEME","TIME_SYSTEM":"UTC","TLE_LINE1":"1 48304U 21036AE  23145.82611175  .00007717  00000-0  53618-3 0  9995","BSTAR":"0.00053618000000","ECCENTRICITY":"0.00010570","MEAN_MOTION":"15.06414894","RCS_SIZE":"LARGE","OBJECT_TYPE":"PAYLOAD","DECAY_DATE":null,"CENTER_NAME":"EARTH","NORAD_CAT_ID":"48304","FILE":"3917122","OBJECT_ID":"2021-036AE","SEMIMAJOR_AXIS":"6925.303","GP_ID":"232514822","CLASSIFICATION_TYPE":"U","INCLINATION":"53.0549","REV_AT_EPOCH":"11460","SITE":"AFETR","ARG_OF_PERICENTER":"129.2415","MEAN_ELEMENT_THEORY":"SGP4","MEAN_MOTION_DOT":"0.00007717","PERIAPSIS":"546.436","MEAN_MOTION_DDOT":"0.0000000000000","APOAPSIS":"547.900","ELEMENT_SET_NO":"999","PERIOD":"95.591","RA_OF_ASC_NODE":"345.4763","COUNTRY_CODE":"US","OBJECT_NAME":"STARLINK-2524","TLE_LINE2":"2 48304  53.0549 345.4763 0001057 129.2415 230.8668 15.06414894114603","MEAN_ANOMALY":"230.8668"},{"CLASSIFICATION_TYPE":"U","INCLINATION":"53.0550","GP_ID":"232515573","SITE":"AFETR","REV_AT_EPOCH":"11460","ARG_OF_PERICENTER":"126.1914","APOAPSIS":"547.841","MEAN_ELEMENT_THEORY":"SGP4","MEAN_MOTION_DOT":"0.00009878","PERIAPSIS":"546.478","MEAN_MOTION_DDOT":"0.0000000000000","RA_OF_ASC_NODE":"345.4837","COUNTRY_CODE":"US","OBJECT_NAME":"STARLINK-2519","TLE_LINE2":"2 48305  53.0550 345.4837 0000984 126.1914 233.9166 15.06417558114603","MEAN_ANOMALY":"233.9166","ELEMENT_SET_NO":"999","PERIOD":"95.591","EPOCH":"2023-05-25T19:42:55.874592","LAUNCH_DATE":"2021-04-29","TIME_SYSTEM":"UTC","TLE_LINE1":"1 48305U 21036AF  23145.82148003  .00009878  00000-0  68077-3 0  9996","BSTAR":"0.00068077000000","ECCENTRICITY":"0.00009840","MEAN_MOTION":"15.06417558","EPHEMERIS_TYPE":"0","REF_FRAME":"TEME","OBJECT_TYPE":"PAYLOAD","RCS_SIZE":"LARGE","SEMIMAJOR_AXIS":"6925.295","OBJECT_ID":"2021-036AF","DECAY_DATE":null,"CENTER_NAME":"EARTH","NORAD_CAT_ID":"48305","FILE":"3917122"},{"ARG_OF_PERICENTER":"61.8905","REV_AT_EPOCH":"11460","SITE":"AFETR","CLASSIFICATION_TYPE":"U","INCLINATION":"53.0541","GP_ID":"232514321","TLE_LINE2":"2 48306  53.0541 345.5066 0001136  61.8905 298.2199 15.06412801114600","MEAN_ANOMALY":"298.2199","RA_OF_ASC_NODE":"345.5066","OBJECT_NAME":"STARLINK-2523","COUNTRY_CODE":"US","PERIOD":"95.591","ELEMENT_SET_NO":"999","APOAPSIS":"547.961","PERIAPSIS":"546.388","MEAN_MOTION_DDOT":"0.0000000000000","MEAN_ELEMENT_THEORY":"SGP4","MEAN_MOTION_DOT":"0.00004721","ECCENTRICITY":"0.00011360","MEAN_MOTION":"15.06412801","TIME_SYSTEM":"UTC","TLE_LINE1":"1 48306U 21036AG  23145.81873673  .00004721  00000-0  33551-3 0  9995","BSTAR":"0.00033551000000","EPHEMERIS_TYPE":"0","REF_FRAME":"TEME","EPOCH":"2023-05-25T19:38:58.853472","LAUNCH_DATE":"2021-04-29","OBJECT_ID":"2021-036AG","SEMIMAJOR_AXIS":"6925.309","FILE":"3917122","DECAY_DATE":null,"CENTER_NAME":"EARTH","NORAD_CAT_ID":"48306","OBJECT_TYPE":"PAYLOAD","RCS_SIZE":"LARGE"},{"BSTAR":"0.00037133000000","TLE_LINE1":"1 48307U 21036AH  23145.81505218  .00005256  00000-0  37133-3 0  9997","TIME_SYSTEM":"UTC","ECCENTRICITY":"0.00010320","MEAN_MOTION":"15.06411855","EPHEMERIS_TYPE":"0","REF_FRAME":"TEME","EPOCH":"2023-05-25T19:33:40.508352","LAUNCH_DATE":"2021-04-29","SEMIMAJOR_AXIS":"6925.312","OBJECT_ID":"2021-036AH","NORAD_CAT_ID":"48307","DECAY_DATE":null,"CENTER_NAME":"EARTH","FILE":"3917122","OBJECT_TYPE":"PAYLOAD","RCS_SIZE":"LARGE","SITE":"AFETR","REV_AT_EPOCH":"11460","ARG_OF_PERICENTER":"70.7548","INCLINATION":"53.0543","CLASSIFICATION_TYPE":"U","GP_ID":"232514571","COUNTRY_CODE":"US","OBJECT_NAME":"STARLINK-2528","RA_OF_ASC_NODE":"345.5231","MEAN_ANOMALY":"289.3553","TLE_LINE2":"2 48307  53.0543 345.5231 0001032  70.7548 289.3553 15.06411855114607","ELEMENT_SET_NO":"999","PERIOD":"95.591","APOAPSIS":"547.892","MEAN_MOTION_DOT":"0.00005256","MEAN_ELEMENT_THEORY":"SGP4","MEAN_MOTION_DDOT":"0.0000000000000","PERIAPSIS":"546.463"},{"APOAPSIS":"548.134","MEAN_MOTION_DDOT":"0.0000000000000","PERIAPSIS":"546.255","MEAN_MOTION_DOT":"0.00003829","MEAN_ELEMENT_THEORY":"SGP4","MEAN_ANOMALY":"279.1449","TLE_LINE2":"2 48308  53.0545 345.2418 0001357  80.9693 279.1449 15.06406219114618","COUNTRY_CODE":"US","OBJECT_NAME":"STARLINK-2532","RA_OF_ASC_NODE":"345.2418","PERIOD":"95.592","ELEMENT_SET_NO":"999","INCLINATION":"53.0545","CLASSIFICATION_TYPE":"U","GP_ID":"232515323","ARG_OF_PERICENTER":"80.9693","SITE":"AFETR","REV_AT_EPOCH":"11461","OBJECT_TYPE":"PAYLOAD","RCS_SIZE":"LARGE","SEMIMAJOR_AXIS":"6925.329","OBJECT_ID":"2021-036AJ","FILE":"3917122","NORAD_CAT_ID":"48308","DECAY_DATE":null,"CENTER_NAME":"EARTH","EPOCH":"2023-05-25T21:03:54.516384","LAUNCH_DATE":"2021-04-29","MEAN_MOTION":"15.06406219","ECCENTRICITY":"0.00013570","TLE_LINE1":"1 48308U 21036AJ  23145.87771431  .00003829  00000-0  27574-3 0  9998","BSTAR":"0.00027574000000","TIME_SYSTEM":"UTC","EPHEMERIS_TYPE":"0","REF_FRAME":"TEME"},{"TIME_SYSTEM":"UTC","TLE_LINE1":"1 48309U 21036AK  23145.87402849  .00002860  00000-0  21078-3 0  9990","BSTAR":"0.00021078000000","ECCENTRICITY":"0.00010700","MEAN_MOTION":"15.06406706","REF_FRAME":"TEME","EPHEMERIS_TYPE":"0","EPOCH":"2023-05-25T20:58:36.061536","LAUNCH_DATE":"2021-04-29","SEMIMAJOR_AXIS":"6925.328","OBJECT_ID":"2021-036AK","DECAY_DATE":null,"CENTER_NAME":"EARTH","NORAD_CAT_ID":"48309","FILE":"3917122","OBJECT_TYPE":"PAYLOAD","RCS_SIZE":"LARGE","SITE":"AFETR","REV_AT_EPOCH":"11461","ARG_OF_PERICENTER":"100.3743","CLASSIFICATION_TYPE":"U","INCLINATION":"53.0550","GP_ID":"232515073","RA_OF_ASC_NODE":"345.2582","OBJECT_NAME":"STARLINK-2517","COUNTRY_CODE":"US","MEAN_ANOMALY":"259.7366","TLE_LINE2":"2 48309  53.0550 345.2582 0001070 100.3743 259.7366 15.06406706114615","ELEMENT_SET_NO":"999","PERIOD":"95.592","APOAPSIS":"547.934","MEAN_ELEMENT_THEORY":"SGP4","MEAN_MOTION_DOT":"0.00002860","PERIAPSIS":"546.452","MEAN_MOTION_DDOT":"0.0000000000000"},{"LAUNCH_DATE":"2021-04-29","EPOCH":"2023-05-25T20:53:17.378592","REF_FRAME":"TEME","EPHEMERIS_TYPE":"0","BSTAR":"0.00013303000000","TLE_LINE1":"1 48310U 21036AL  23145.87034003  .00001701  00000-0  13303-3 0  9990","TIME_SYSTEM":"UTC","MEAN_MOTION":"15.06404078","ECCENTRICITY":"0.00011910","RCS_SIZE":"LARGE","OBJECT_TYPE":"PAYLOAD","NORAD_CAT_ID":"48310","DECAY_DATE":null,"CENTER_NAME":"EARTH","FILE":"3917122","SEMIMAJOR_AXIS":"6925.336","OBJECT_ID":"2021-036AL","GP_ID":"232513821","INCLINATION":"53.0554","CLASSIFICATION_TYPE":"U","SITE":"AFETR","REV_AT_EPOCH":"11461","ARG_OF_PERICENTER":"76.2968","MEAN_MOTION_DOT":"0.00001701","MEAN_ELEMENT_THEORY":"SGP4","MEAN_MOTION_DDOT":"0.0000000000000","PERIAPSIS":"546.376","APOAPSIS":"548.026","ELEMENT_SET_NO":"999","PERIOD":"95.592","COUNTRY_CODE":"US","OBJECT_NAME":"STARLINK-2536","RA_OF_ASC_NODE":"345.2752","TLE_LINE2":"2 48310  53.0554 345.2752 0001191  76.2968 283.8153 15.06404078114616","MEAN_ANOMALY":"283.8153"}];
